NORAD_CAT_ID,OBJECT_NAME,OBJECT_TYPE,EPOCH,MEAN_MOTION,ECCENTRICITY,INCLINATION,RA_OF_ASC_NODE,ARG_OF_PERICENTER,MEAN_ANOMALY,BSTAR,MEAN_MOTION_DOT,MEAN_MOTION_DDOT,TLE_LINE0,TLE_LINE1,TLE_LINE2,SEMIMAJOR_AXIS,PERIOD,APOGEE,PERIGEE,DECAYED
53639.0,STARLINK-4422,PAYLOAD,2024-02-25 21:49:04,15.0885396,0.0001355,53.217,318.3872,98.3452,261.7694,0.00032666,4.917e-05,0.0,0 STARLINK-4422,1 53639U 22104BD  24056.90907877  .00004917  00000-0  32666-3 0  9996,2 53639  53.2170 318.3872 0001355  98.3452 261.7694 15.08853960 83925,6917.838,95.437,540.64,538.765,0.0
53639.0,STARLINK-4422,PAYLOAD,2024-02-26 00:59:50,15.08861363,0.000136,53.2168,317.7924,96.4674,263.6473,0.00046302,7.093e-05,0.0,0 STARLINK-4422,1 53639U 22104BD  24057.04155590  .00007093  00000-0  46302-3 0  9999,2 53639  53.2168 317.7924 0001360  96.4674 263.6473 15.08861363 83094,6917.815,95.436,540.621,538.739,0.0
53639.0,STARLINK-4422,PAYLOAD,2024-02-26 16:53:42,15.08848227,0.0001571,53.2171,314.8179,89.3019,270.8153,0.00014058,1.951e-05,0.0,0 STARLINK-4422,1 53639U 22104BD  24057.70395916  .00001951  00000-0  14058-3 0  9990,2 53639  53.2171 314.8179 0001571  89.3019 270.8153 15.08848227 83196,6917.855,95.437,540.807,538.633,0.0
53639.0,STARLINK-4422,PAYLOAD,2024-02-26 21:39:51,15.08844902,0.0001429,53.2173,313.9262,86.224,273.8915,0.00010251,1.344e-05,0.0,0 STARLINK-4422,1 53639U 22104BD  24057.90268059  .00001344  00000-0  10251-3 0  9996,2 53639  53.2173 313.9262 0001429  86.2240 273.8915 15.08844902 84078,6917.865,95.437,540.719,538.742,0.0
53639.0,STARLINK-4422,PAYLOAD,2024-02-27 10:22:56,15.08835095,0.0001533,53.2176,311.5373,99.8356,260.281,-1.891e-05,-5.89e-06,0.0,0 STARLINK-4422,1 53639U 22104BD  24058.43260074 -.00000589  00000-0 -18910-4 0  9997,2 53639  53.2176 311.5373 0001533  99.8356 260.2810 15.08835095 83304,6917.895,95.438,540.821,538.7,0.0
53639.0,STARLINK-4422,PAYLOAD,2024-02-27 21:30:39,15.0883276,0.0001707,53.2171,309.4569,96.6333,263.4854,0.0002227,3.257e-05,0.0,0 STARLINK-4422,1 53639U 22104BD  24058.89628541  .00003257  00000-0  22270-3 0  9990,2 53639  53.2171 309.4569 0001707  96.6333 263.4854 15.08832760 84226,6917.903,95.438,540.948,538.587,0.0
53639.0,STARLINK-4422,PAYLOAD,2024-02-28 02:16:48,15.08837826,0.0001601,53.2174,308.5645,96.1415,263.976,4.8147e-05,4.78e-06,0.0,0 STARLINK-4422,1 53639U 22104BD  24059.09500411  .00000478  00000-0  48147-4 0  9992,2 53639  53.2174 308.5645 0001601  96.1415 263.9760 15.08837826 84255,6917.887,95.438,540.86,538.644,0.0
53639.0,STARLINK-4422,PAYLOAD,2024-02-28 19:46:03,15.08838848,0.0001521,53.2158,305.2943,113.3905,246.7247,0.00019989,2.895e-05,0.0,0 STARLINK-4422,1 53639U 22104BD  24059.82364745  .00002895  00000-0  19989-3 0  9997,2 53639  53.2158 305.2943 0001521 113.3905 246.7247 15.08838848 83511,6917.884,95.438,540.801,538.697,0.0
53639.0,STARLINK-4422,PAYLOAD,2024-02-28 22:56:49,15.08840205,0.0001502,53.2161,304.7009,105.9786,254.1371,0.00022268,3.258e-05,0.0,0 STARLINK-4422,1 53639U 22104BD  24059.95612772  .00003258  00000-0  22268-3 0  9995,2 53639  53.2161 304.7009 0001502 105.9786 254.1371 15.08840205 84382,6917.88,95.438,540.784,538.706,0.0
53639.0,STARLINK-4422,PAYLOAD,2024-02-29 02:07:35,15.08841544,0.0001488,53.216,304.1061,105.648,254.4677,0.0002401,3.535e-05,0.0,0 STARLINK-4422,1 53639U 22104BD  24060.08860744  .00003535  00000-0  24010-3 0  9990,2 53639  53.2160 304.1061 0001488 105.6480 254.4677 15.08841544 84406,6917.876,95.437,540.77,538.711,0.0
53639.0,STARLINK-4422,PAYLOAD,2024-02-29 21:12:12,15.08849313,0.0001515,53.2167,300.5386,96.1513,263.9652,0.0002932,4.383e-05,0.0,0 STARLINK-4422,1 53639U 22104BD  24060.88348360  .00004383  00000-0  29320-3 0  9994,2 53639  53.2167 300.5386 0001515  96.1513 263.9652 15.08849313 83673,6917.852,95.437,540.765,538.669,0.0
53639.0,STARLINK-4422,PAYLOAD,2024-02-29 22:47:36,15.08849965,9.85e-05,53.2148,300.2417,78.3137,281.7966,0.00030499,4.571e-05,0.0,0 STARLINK-4422,1 53639U 22104BD  24060.94972302  .00004571  00000-0  30499-3 0  9998,2 53639  53.2148 300.2417 0000985  78.3137 281.7966 15.08849965 84533,6917.85,95.437,540.396,539.034,0.0
53639.0,STARLINK-4422,PAYLOAD,2024-03-01 08:19:55,15.08843746,0.0002,53.2163,298.456,91.1202,269.0019,0.00010797,1.431e-05,0.0,0 STARLINK-4422,1 53639U 22104BD  24061.34716558  .00001431  00000-0  10797-3 0  9993,2 53639  53.2163 298.4560 0002000  91.1202 269.0019 15.08843746 83744,6917.869,95.437,541.118,538.35,0.0
53639.0,STARLINK-4422,PAYLOAD,2024-03-01 21:03:00,15.08840429,0.0001818,53.2158,296.0768,96.8568,263.2631,-2.4617e-05,-6.8e-06,0.0,0 STARLINK-4422,1 53639U 22104BD  24061.87708420 -.00000680  00000-0 -24617-4 0  9994,2 53639  53.2158 296.0768 0001818  96.8568 263.2631 15.08840429 84679,6917.879,95.438,541.002,538.486,0.0
53639.0,STARLINK-4422,PAYLOAD,2024-03-02 19:18:23,15.08844899,0.0001885,53.2162,291.9134,99.4566,260.6639,-6.0801e-05,-1.256e-05,0.0,0 STARLINK-4422,1 53639U 22104BD  24062.80444363 -.00001256  00000-0 -60801-4 0  9996,2 53639  53.2162 291.9134 0001885  99.4566 260.6639 15.08844899 83961,6917.865,95.437,541.034,538.426,0.0
53639.0,STARLINK-4422,PAYLOAD,2024-03-02 20:53:47,15.08844327,0.0001507,53.2176,291.6194,87.5037,272.6128,-8.0431e-05,-1.568e-05,0.0,0 STARLINK-4422,1 53639U 22104BD  24062.87068395 -.00001568  00000-0 -80431-4 0  9997,2 53639  53.2176 291.6194 0001507  87.5037 272.6128 15.08844327 84829,6917.867,95.437,540.775,538.69,0.0
53639.0,STARLINK-4422,PAYLOAD,2024-03-03 08:01:29,15.08844567,0.0001576,53.2179,289.5372,87.8617,272.2556,-3.5426e-05,-8.52e-06,0.0,0 STARLINK-4422,1 53639U 22104BD  24063.33436420 -.00000852  00000-0 -35426-4 0  9996,2 53639  53.2179 289.5372 0001576  87.8617 272.2556 15.08844567 84893,6917.866,95.437,540.822,538.641,0.0
53639.0,STARLINK-4422,PAYLOAD,2024-03-03 19:09:11,15.08838138,0.0001707,53.2182,287.4537,84.9763,275.1424,0.00013514,1.863e-05,0.0,0 STARLINK-4422,1 53639U 22104BD  24063.79804972  .00001863  00000-0  13514-3 0  9991,2 53639  53.2182 287.4537 0001707  84.9763 275.1424 15.08838138 84964,6917.886,95.438,540.932,538.57,0.0
53639.0,STARLINK-4422,PAYLOAD,2024-03-03 23:55:20,15.08844254,0.000163,53.2173,286.5591,78.7967,281.3208,0.00019553,2.826e-05,0.0,0 STARLINK-4422,1 53639U 22104BD  24063.99676687  .00002826  00000-0  19553-3 0  9992,2 53639  53.2173 286.5591 0001630  78.7967 281.3208 15.08844254 84141,6917.867,95.437,540.86,538.605,0.0
53639.0,STARLINK-4422,PAYLOAD,2024-03-04 07:52:16,15.08848663,0.000129,53.2153,285.0756,94.3939,265.7201,0.00025932,3.843e-05,0.0,0 STARLINK-4422,1 53639U 22104BD  24064.32796305  .00003843  00000-0  25932-3 0  9998,2 53639  53.2153 285.0756 0001290  94.3939 265.7201 15.08848663 85048,6917.854,95.437,540.611,538.827,0.0
53639.0,STARLINK-4422,PAYLOAD,2024-03-04 22:10:43,15.08858368,0.0001316,53.215,282.3996,91.8533,268.261,0.00042234,6.443e-05,0.0,0 STARLINK-4422,1 53639U 22104BD  24064.92411714  .00006443  00000-0  42234-3 0  9995,2 53639  53.2150 282.3996 0001316  91.8533 268.2610 15.08858368 85137,6917.824,95.436,540.6,538.779,0.0
53639.0,STARLINK-4422,PAYLOAD,2024-03-05 14:04:35,15.08839536,0.0001479,53.2151,279.4256,84.1226,275.9935,-3.2757e-05,-8.09e-06,0.0,0 STARLINK-4422,1 53639U 22104BD  24065.58652323 -.00000809  00000-0 -32757-4 0  9993,2 53639  53.2151 279.4256 0001479  84.1226 275.9935 15.08839536 85230,6917.882,95.438,540.77,538.724,0.0
53639.0,STARLINK-4422,PAYLOAD,2024-03-05 20:26:08,15.08835477,0.0001279,53.2158,278.2346,97.9972,262.1165,-2.8216e-05,-7.37e-06,0.0,0 STARLINK-4422,1 53639U 22104BD  24065.85148471 -.00000737  00000-0 -28216-4 0  9992,2 53639  53.2158 278.2346 0001279  97.9972 262.1165 15.08835477 84425,6917.894,95.438,540.644,538.874,0.0
53639.0,STARLINK-4422,PAYLOAD,2024-03-06 13:55:23,15.0884246,0.0001428,53.2159,274.9656,79.3934,280.7219,0.00056703,8.748e-05,0.0,0 STARLINK-4422,1 53639U 22104BD  24066.58012921  .00008748  00000-0  56703-3 0  9992,2 53639  53.2159 274.9656 0001428  79.3934 280.7219 15.08842460 85383,6917.873,95.437,540.726,538.75,0.0
53639.0,STARLINK-4422,PAYLOAD,2024-03-06 20:16:55,15.08852893,0.0001443,53.2158,273.7768,73.8898,286.2253,0.0010155,0.00015916,0.0,0 STARLINK-4422,1 53639U 22104BD  24066.84508861  .00015916  00000-0  10155-2 0  9999,2 53639  53.2158 273.7768 0001443  73.8898 286.2253 15.08852893 84578,6917.841,95.437,540.704,538.708,0.0
53639.0,STARLINK-4422,PAYLOAD,2024-03-08 13:36:57,15.0884592,0.0001455,53.2161,266.0455,88.4003,271.7156,0.0003311,4.986e-05,0.0,0 STARLINK-4422,1 53639U 22104BD  24068.56732868  .00004986  00000-0  33110-3 0  9998,2 53639  53.2161 266.0455 0001455  88.4003 271.7156 15.08845920 85680,6917.862,95.437,540.734,538.721,0.0
53639.0,STARLINK-4422,PAYLOAD,2024-03-08 19:58:29,15.08849951,0.0001508,53.2163,264.8573,88.4472,271.6693,0.0004925,7.561e-05,0.0,0 STARLINK-4422,1 53639U 22104BD  24068.83228765  .00007561  00000-0  49250-3 0  9998,2 53639  53.2163 264.8573 0001508  88.4472 271.6693 15.08849951 84871,6917.85,95.437,540.758,538.672,0.0
53639.0,STARLINK-4422,PAYLOAD,2024-03-09 13:27:44,15.0884342,0.0001589,53.2157,261.5867,89.2959,270.8215,0.00016155,2.284e-05,0.0,0 STARLINK-4422,1 53639U 22104BD  24069.56092864  .00002284  00000-0  16155-3 0  9993,2 53639  53.2157 261.5867 0001589  89.2959 270.8215 15.08843420 85835,6917.87,95.437,540.834,538.636,0.0
53639.0,STARLINK-4422,PAYLOAD,2024-03-09 19:49:16,15.08842945,0.0001517,53.2156,260.3961,87.3276,272.789,0.00015319,2.151e-05,0.0,0 STARLINK-4422,1 53639U 22104BD  24069.82588915  .00002151  00000-0  15319-3 0  9993,2 53639  53.2156 260.3961 0001517  87.3276 272.7890 15.08842945 85020,6917.871,95.437,540.786,538.687,0.0
53639.0,STARLINK-4422,PAYLOAD,2024-03-09 21:24:39,15.08841617,0.0001511,53.2155,260.0991,87.1333,272.9832,0.00011148,1.487e-05,0.0,0 STARLINK-4422,1 53639U 22104BD  24069.89212933  .00001487  00000-0  11148-3 0  9991,2 53639  53.2155 260.0991 0001511  87.1333 272.9832 15.08841617 85882,6917.875,95.437,540.786,538.695,0.0
